<?xml version="1.0" encoding="UTF-8"?>
<ndm xmlns:xsi="http://www.w3.org/2001/XMLSchema-instance" xsi:noNamespaceSchemaLocation="https://sanaregistry.org/r/ndmxml_unqualified/ndmxml-2.0.0-master-2.0.xsd">
<omm id="CCSDS_OMM_VERS" version="2.0">
<header><CREATION_DATE/><ORIGINATOR/></header><body><segment><metadata><OBJECT_NAME>ORBCOMM FM103</OBJECT_NAME><OBJECT_ID>2014-040F</OBJECT_ID><CENTER_NAME>EARTH</CENTER_NAME><REF_FRAME>TEME</REF_FRAME><TIME_SYSTEM>UTC</TIME_SYSTEM><MEAN_ELEMENT_THEORY>SGP4</MEAN_ELEMENT_THEORY></metadata><data><meanElements><EPOCH>2024-05-11T20:50:56.688288</EPOCH><MEAN_MOTION>14.56573536</MEAN_MOTION><ECCENTRICITY>.0002512</ECCENTRICITY><INCLINATION>47.0039</INCLINATION><RA_OF_ASC_NODE>110.8066</RA_OF_ASC_NODE><ARG_OF_PERICENTER>253.6985</ARG_OF_PERICENTER><MEAN_ANOMALY>106.3624</MEAN_ANOMALY></meanElements><tleParameters><EPHEMERIS_TYPE>0</EPHEMERIS_TYPE><CLASSIFICATION_TYPE>U</CLASSIFICATION_TYPE><NORAD_CAT_ID>40091</NORAD_CAT_ID><ELEMENT_SET_NO>999</ELEMENT_SET_NO><REV_AT_EPOCH>52262</REV_AT_EPOCH><BSTAR>.97069E-3</BSTAR><MEAN_MOTION_DOT>.4201E-4</MEAN_MOTION_DOT><MEAN_MOTION_DDOT>0</MEAN_MOTION_DDOT></tleParameters></data></segment></body></omm>
<omm id="CCSDS_OMM_VERS" version="2.0">
<header><CREATION_DATE/><ORIGINATOR/></header><body><segment><metadata><OBJECT_NAME>ORBCOMM FM114</OBJECT_NAME><OBJECT_ID>2015-081A</OBJECT_ID><CENTER_NAME>EARTH</CENTER_NAME><REF_FRAME>TEME</REF_FRAME><TIME_SYSTEM>UTC</TIME_SYSTEM><MEAN_ELEMENT_THEORY>SGP4</MEAN_ELEMENT_THEORY></metadata><data><meanElements><EPOCH>2024-05-11T20:00:27.807552</EPOCH><MEAN_MOTION>14.56611871</MEAN_MOTION><ECCENTRICITY>.0001926</ECCENTRICITY><INCLINATION>47.0030</INCLINATION><RA_OF_ASC_NODE>20.2539</RA_OF_ASC_NODE><ARG_OF_PERICENTER>296.4509</ARG_OF_PERICENTER><MEAN_ANOMALY>63.6178</MEAN_ANOMALY></meanElements><tleParameters><EPHEMERIS_TYPE>0</EPHEMERIS_TYPE><CLASSIFICATION_TYPE>U</CLASSIFICATION_TYPE><NORAD_CAT_ID>41179</NORAD_CAT_ID><ELEMENT_SET_NO>999</ELEMENT_SET_NO><REV_AT_EPOCH>44597</REV_AT_EPOCH><BSTAR>.15695E-2</BSTAR><MEAN_MOTION_DOT>.6905E-4</MEAN_MOTION_DOT><MEAN_MOTION_DDOT>0</MEAN_MOTION_DDOT></tleParameters></data></segment></body></omm>
<omm id="CCSDS_OMM_VERS" version="2.0">
<header><CREATION_DATE/><ORIGINATOR/></header><body><segment><metadata><OBJECT_NAME>ORBCOMM FM119</OBJECT_NAME><OBJECT_ID>2015-081B</OBJECT_ID><CENTER_NAME>EARTH</CENTER_NAME><REF_FRAME>TEME</REF_FRAME><TIME_SYSTEM>UTC</TIME_SYSTEM><MEAN_ELEMENT_THEORY>SGP4</MEAN_ELEMENT_THEORY></metadata><data><meanElements><EPOCH>2024-05-11T19:17:31.531488</EPOCH><MEAN_MOTION>14.56562824</MEAN_MOTION><ECCENTRICITY>.0001203</ECCENTRICITY><INCLINATION>47.0000</INCLINATION><RA_OF_ASC_NODE>289.5841</RA_OF_ASC_NODE><ARG_OF_PERICENTER>335.0519</ARG_OF_PERICENTER><MEAN_ANOMALY>25.0307</MEAN_ANOMALY></meanElements><tleParameters><EPHEMERIS_TYPE>0</EPHEMERIS_TYPE><CLASSIFICATION_TYPE>U</CLASSIFICATION_TYPE><NORAD_CAT_ID>41180</NORAD_CAT_ID><ELEMENT_SET_NO>999</ELEMENT_SET_NO><REV_AT_EPOCH>44717</REV_AT_EPOCH><BSTAR>.10035E-2</BSTAR><MEAN_MOTION_DOT>.4348E-4</MEAN_MOTION_DOT><MEAN_MOTION_DDOT>0</MEAN_MOTION_DDOT></tleParameters></data></segment></body></omm>
<omm id="CCSDS_OMM_VERS" version="2.0">
<header><CREATION_DATE/><ORIGINATOR/></header><body><segment><metadata><OBJECT_NAME>ORBCOMM FM105</OBJECT_NAME><OBJECT_ID>2015-081C</OBJECT_ID><CENTER_NAME>EARTH</CENTER_NAME><REF_FRAME>TEME</REF_FRAME><TIME_SYSTEM>UTC</TIME_SYSTEM><MEAN_ELEMENT_THEORY>SGP4</MEAN_ELEMENT_THEORY></metadata><data><meanElements><EPOCH>2024-05-11T10:39:46.133280</EPOCH><MEAN_MOTION>14.44377387</MEAN_MOTION><ECCENTRICITY>.0002211</ECCENTRICITY><INCLINATION>47.0012</INCLINATION><RA_OF_ASC_NODE>258.2785</RA_OF_ASC_NODE><ARG_OF_PERICENTER>302.3341</ARG_OF_PERICENTER><MEAN_ANOMALY>57.7324</MEAN_ANOMALY></meanElements><tleParameters><EPHEMERIS_TYPE>0</EPHEMERIS_TYPE><CLASSIFICATION_TYPE>U</CLASSIFICATION_TYPE><NORAD_CAT_ID>41181</NORAD_CAT_ID><ELEMENT_SET_NO>999</ELEMENT_SET_NO><REV_AT_EPOCH>44276</REV_AT_EPOCH><BSTAR>.52864E-3</BSTAR><MEAN_MOTION_DOT>.168E-4</MEAN_MOTION_DOT><MEAN_MOTION_DDOT>0</MEAN_MOTION_DDOT></tleParameters></data></segment></body></omm>
<omm id="CCSDS_OMM_VERS" version="2.0">
<header><CREATION_DATE/><ORIGINATOR/></header><body><segment><metadata><OBJECT_NAME>ORBCOMM FM110</OBJECT_NAME><OBJECT_ID>2015-081D</OBJECT_ID><CENTER_NAME>EARTH</CENTER_NAME><REF_FRAME>TEME</REF_FRAME><TIME_SYSTEM>UTC</TIME_SYSTEM><MEAN_ELEMENT_THEORY>SGP4</MEAN_ELEMENT_THEORY></metadata><data><meanElements><EPOCH>2024-05-11T19:27:44.186112</EPOCH><MEAN_MOTION>14.56604264</MEAN_MOTION><ECCENTRICITY>.0001436</ECCENTRICITY><INCLINATION>47.0023</INCLINATION><RA_OF_ASC_NODE>19.7692</RA_OF_ASC_NODE><ARG_OF_PERICENTER>133.0482</ARG_OF_PERICENTER><MEAN_ANOMALY>227.0523</MEAN_ANOMALY></meanElements><tleParameters><EPHEMERIS_TYPE>0</EPHEMERIS_TYPE><CLASSIFICATION_TYPE>U</CLASSIFICATION_TYPE><NORAD_CAT_ID>41182</NORAD_CAT_ID><ELEMENT_SET_NO>999</ELEMENT_SET_NO><REV_AT_EPOCH>44597</REV_AT_EPOCH><BSTAR>.14054E-2</BSTAR><MEAN_MOTION_DOT>.6164E-4</MEAN_MOTION_DOT><MEAN_MOTION_DDOT>0</MEAN_MOTION_DDOT></tleParameters></data></segment></body></omm>
<omm id="CCSDS_OMM_VERS" version="2.0">
<header><CREATION_DATE/><ORIGINATOR/></header><body><segment><metadata><OBJECT_NAME>ORBCOMM FM118</OBJECT_NAME><OBJECT_ID>2015-081E</OBJECT_ID><CENTER_NAME>EARTH</CENTER_NAME><REF_FRAME>TEME</REF_FRAME><TIME_SYSTEM>UTC</TIME_SYSTEM><MEAN_ELEMENT_THEORY>SGP4</MEAN_ELEMENT_THEORY></metadata><data><meanElements><EPOCH>2024-05-11T18:55:10.542144</EPOCH><MEAN_MOTION>14.56593312</MEAN_MOTION><ECCENTRICITY>.0001495</ECCENTRICITY><INCLINATION>47.0044</INCLINATION><RA_OF_ASC_NODE>20.1828</RA_OF_ASC_NODE><ARG_OF_PERICENTER>128.3316</ARG_OF_PERICENTER><MEAN_ANOMALY>231.7704</MEAN_ANOMALY></meanElements><tleParameters><EPHEMERIS_TYPE>0</EPHEMERIS_TYPE><CLASSIFICATION_TYPE>U</CLASSIFICATION_TYPE><NORAD_CAT_ID>41183</NORAD_CAT_ID><ELEMENT_SET_NO>999</ELEMENT_SET_NO><REV_AT_EPOCH>44597</REV_AT_EPOCH><BSTAR>.16927E-2</BSTAR><MEAN_MOTION_DOT>.7458E-4</MEAN_MOTION_DOT><MEAN_MOTION_DDOT>0</MEAN_MOTION_DDOT></tleParameters></data></segment></body></omm>
<omm id="CCSDS_OMM_VERS" version="2.0">
<header><CREATION_DATE/><ORIGINATOR/></header><body><segment><metadata><OBJECT_NAME>ORBCOMM FM112</OBJECT_NAME><OBJECT_ID>2015-081F</OBJECT_ID><CENTER_NAME>EARTH</CENTER_NAME><REF_FRAME>TEME</REF_FRAME><TIME_SYSTEM>UTC</TIME_SYSTEM><MEAN_ELEMENT_THEORY>SGP4</MEAN_ELEMENT_THEORY></metadata><data><meanElements><EPOCH>2024-05-11T18:44:43.976256</EPOCH><MEAN_MOTION>14.56608359</MEAN_MOTION><ECCENTRICITY>.0001179</ECCENTRICITY><INCLINATION>46.9983</INCLINATION><RA_OF_ASC_NODE>288.9075</RA_OF_ASC_NODE><ARG_OF_PERICENTER>305.5056</ARG_OF_PERICENTER><MEAN_ANOMALY>54.5719</MEAN_ANOMALY></meanElements><tleParameters><EPHEMERIS_TYPE>0</EPHEMERIS_TYPE><CLASSIFICATION_TYPE>U</CLASSIFICATION_TYPE><NORAD_CAT_ID>41184</NORAD_CAT_ID><ELEMENT_SET_NO>999</ELEMENT_SET_NO><REV_AT_EPOCH>44716</REV_AT_EPOCH><BSTAR>.11924E-2</BSTAR><MEAN_MOTION_DOT>.5204E-4</MEAN_MOTION_DOT><MEAN_MOTION_DDOT>0</MEAN_MOTION_DDOT></tleParameters></data></segment></body></omm>
<omm id="CCSDS_OMM_VERS" version="2.0">
<header><CREATION_DATE/><ORIGINATOR/></header><body><segment><metadata><OBJECT_NAME>ORBCOMM FM113</OBJECT_NAME><OBJECT_ID>2015-081G</OBJECT_ID><CENTER_NAME>EARTH</CENTER_NAME><REF_FRAME>TEME</REF_FRAME><TIME_SYSTEM>UTC</TIME_SYSTEM><MEAN_ELEMENT_THEORY>SGP4</MEAN_ELEMENT_THEORY></metadata><data><meanElements><EPOCH>2024-05-11T19:50:39.227424</EPOCH><MEAN_MOTION>14.56603158</MEAN_MOTION><ECCENTRICITY>.0000705</ECCENTRICITY><INCLINATION>47.0000</INCLINATION><RA_OF_ASC_NODE>288.9583</RA_OF_ASC_NODE><ARG_OF_PERICENTER>313.4044</ARG_OF_PERICENTER><MEAN_ANOMALY>46.6782</MEAN_ANOMALY></meanElements><tleParameters><EPHEMERIS_TYPE>0</EPHEMERIS_TYPE><CLASSIFICATION_TYPE>U</CLASSIFICATION_TYPE><NORAD_CAT_ID>41185</NORAD_CAT_ID><ELEMENT_SET_NO>999</ELEMENT_SET_NO><REV_AT_EPOCH>44717</REV_AT_EPOCH><BSTAR>.11827E-2</BSTAR><MEAN_MOTION_DOT>.5159E-4</MEAN_MOTION_DOT><MEAN_MOTION_DDOT>0</MEAN_MOTION_DDOT></tleParameters></data></segment></body></omm>

</ndm>
