ORBCOMM FM103           
1 40091U 14040F   24132.86871167  .00004201  00000+0  97069-3 0  9999
2 40091  47.0039 110.8066 0002512 253.6985 106.3624 14.56573536522623
ORBCOMM FM114           
1 41179U 15081A   24132.83365518  .00006905  00000+0  15695-2 0  9995
2 41179  47.0030  20.2539 0001926 296.4509  63.6178 14.56611871445972
ORBCOMM FM119           
1 41180U 15081B   24132.80383717  .00004348  00000+0  10035-2 0  9997
2 41180  47.0000 289.5841 0001203 335.0519  25.0307 14.56562824447179
ORBCOMM FM105           
1 41181U 15081C   24132.44428395  .00001680  00000+0  52864-3 0  9993
2 41181  47.0012 258.2785 0002211 302.3341  57.7324 14.44377387442769
ORBCOMM FM110           
1 41182U 15081D   24132.81092808  .00006164  00000+0  14054-2 0  9991
2 41182  47.0023  19.7692 0001436 133.0482 227.0523 14.56604264445971
ORBCOMM FM118           
1 41183U 15081E   24132.78831646  .00007458  00000+0  16927-2 0  9997
2 41183  47.0044  20.1828 0001495 128.3316 231.7704 14.56593312445974
ORBCOMM FM112           
1 41184U 15081F   24132.78106454  .00005204  00000+0  11924-2 0  9999
2 41184  46.9983 288.9075 0001179 305.5056  54.5719 14.56608359447160
ORBCOMM FM113           
1 41185U 15081G   24132.82684291  .00005159  00000+0  11827-2 0  9996
2 41185  47.0000 288.9583 0000705 313.4044  46.6782 14.56603158447171
